NORAD_CAT_ID,OBJECT_NAME,OBJECT_TYPE,EPOCH,MEAN_MOTION,ECCENTRICITY,INCLINATION,RA_OF_ASC_NODE,ARG_OF_PERICENTER,MEAN_ANOMALY,BSTAR,MEAN_MOTION_DOT,MEAN_MOTION_DDOT,TLE_LINE0,TLE_LINE1,TLE_LINE2,SEMIMAJOR_AXIS,PERIOD,APOGEE,PERIGEE,DECAYED
53894.0,STARLINK-5043,PAYLOAD,2023-11-15 12:42:33,15.0885479,0.0001416,53.2173,158.2267,100.266,259.8491,-0.00016719,-2.949e-05,0.0,0 STARLINK-5043,1 53894U 22119J   23319.52955970 -.00002949  00000-0 -16719-3 0  9997,2 53894  53.2173 158.2267 0001416 100.2660 259.8491 15.08854790 64094,6917.835,95.437,540.68,538.721,0.0
53894.0,STARLINK-5043,PAYLOAD,2023-11-15 22:14:52,15.08853829,0.0001374,53.2172,156.4426,100.0097,260.105,-0.00015202,-2.707e-05,0.0,0 STARLINK-5043,1 53894U 22119J   23319.92699661 -.00002707  00000-0 -15202-3 0  9991,2 53894  53.2172 156.4426 0001374 100.0097 260.1050 15.08853829 64150,6917.838,95.437,540.654,538.753,0.0
53894.0,STARLINK-5043,PAYLOAD,2023-11-15 23:50:16,15.08836099,0.0001515,53.2146,156.1442,93.387,266.7296,8.3675e-05,1.044e-05,0.0,0 STARLINK-5043,1 53894U 22119J   23319.99324101  .00001044  00000-0  83675-4 0  9993,2 53894  53.2146 156.1442 0001515  93.3870 266.7296 15.08836099 63744,6917.892,95.438,540.805,538.709,0.0
53894.0,STARLINK-5043,PAYLOAD,2023-11-16 06:11:47,15.08855916,0.0001297,53.2157,154.9551,97.223,262.891,-0.00016483,-2.911e-05,0.0,0 STARLINK-5043,1 53894U 22119J   23320.25819234 -.00002911  00000-0 -16483-3 0  9998,2 53894  53.2157 154.9551 0001297  97.2230 262.8910 15.08855916 63786,6917.832,95.437,540.594,538.799,0.0
53894.0,STARLINK-5043,PAYLOAD,2023-11-16 22:05:39,15.08841639,0.0001254,53.2159,151.9812,93.4341,266.6795,0.00011483,1.54e-05,0.0,0 STARLINK-5043,1 53894U 22119J   23320.92059691  .00001540  00000-0  11483-3 0  9995,2 53894  53.2159 151.9812 0001254  93.4341 266.6795 15.08841639 64308,6917.875,95.437,540.608,538.873,0.0
53894.0,STARLINK-5043,PAYLOAD,2023-11-17 12:24:08,15.0883732,0.0001447,53.2149,149.3045,88.88,271.2358,5.3492e-05,5.63e-06,0.0,0 STARLINK-5043,1 53894U 22119J   23321.51676265  .00000563  00000-0  53492-4 0  9994,2 53894  53.2149 149.3045 0001447  88.8800 271.2358 15.08837320 63979,6917.889,95.438,540.755,538.753,0.0
53894.0,STARLINK-5043,PAYLOAD,2023-11-17 21:56:27,15.08836231,0.0001386,53.2152,147.5203,89.0129,271.1022,2.8056e-05,1.59e-06,0.0,0 STARLINK-5043,1 53894U 22119J   23321.91420422  .00000159  00000-0  28056-4 0  9999,2 53894  53.2152 147.5203 0001386  89.0129 271.1022 15.08836231 64459,6917.892,95.438,540.716,538.798,0.0
53894.0,STARLINK-5043,PAYLOAD,2023-11-18 12:14:55,15.08841025,0.0001352,53.2155,144.8438,89.6168,270.4979,4.4718e-05,4.24e-06,0.0,0 STARLINK-5043,1 53894U 22119J   23322.51036128  .00000424  00000-0  44718-4 0  9990,2 53894  53.2155 144.8438 0001352  89.6168 270.4979 15.08841025 64544,6917.877,95.437,540.678,538.807,0.0
53894.0,STARLINK-5043,PAYLOAD,2023-11-18 18:36:27,15.08843385,0.0001361,53.2156,143.6546,88.6078,271.507,3.8265e-05,3.21e-06,0.0,0 STARLINK-5043,1 53894U 22119J   23322.77531942  .00000321  00000-0  38265-4 0  9998,2 53894  53.2156 143.6546 0001361  88.6078 271.5070 15.08843385 64164,6917.87,95.437,540.677,538.794,0.0
53894.0,STARLINK-5043,PAYLOAD,2023-11-18 21:47:13,15.08839869,0.0001369,53.216,143.0603,87.358,272.7569,7.3372e-05,8.8e-06,0.0,0 STARLINK-5043,1 53894U 22119J   23322.90779980  .00000880  00000-0  73372-4 0  9997,2 53894  53.2160 143.0603 0001369  87.3580 272.7569 15.08839869 64606,6917.881,95.438,540.693,538.799,0.0
53894.0,STARLINK-5043,PAYLOAD,2023-11-19 12:05:42,15.08841245,0.000134,53.2158,140.3837,88.0088,272.1058,0.00010815,1.434e-05,0.0,0 STARLINK-5043,1 53894U 22119J   23323.50395846  .00001434  00000-0  10815-3 0  9997,2 53894  53.2158 140.3837 0001340  88.0088 272.1058 15.08841245 64699,6917.877,95.437,540.669,538.815,0.0
53894.0,STARLINK-5043,PAYLOAD,2023-11-19 18:27:14,15.08844541,0.000134,53.2166,139.1943,88.8915,271.2231,0.00011223,1.499e-05,0.0,0 STARLINK-5043,1 53894U 22119J   23323.76891626  .00001499  00000-0  11223-3 0  9997,2 53894  53.2166 139.1943 0001340  88.8915 271.2231 15.08844541 64739,6917.867,95.437,540.659,538.805,0.0
53894.0,STARLINK-5043,PAYLOAD,2023-11-20 11:56:29,15.08841321,0.0001389,53.2166,135.9237,87.9194,272.1957,3.9531e-05,3.41e-06,0.0,0 STARLINK-5043,1 53894U 22119J   23324.49756001  .00000341  00000-0  39531-4 0  9993,2 53894  53.2166 135.9237 0001389  87.9194 272.1957 15.08841321 64841,6917.876,95.437,540.702,538.78,0.0
53894.0,STARLINK-5043,PAYLOAD,2023-11-20 18:18:01,15.08840995,0.0001381,53.2167,134.7336,92.3342,267.7808,3.0247e-05,1.93e-06,0.0,0 STARLINK-5043,1 53894U 22119J   23324.76251978  .00000193  00000-0  30247-4 0  9996,2 53894  53.2167 134.7336 0001381  92.3342 267.7808 15.08840995 64465,6917.877,95.437,540.698,538.787,0.0
53894.0,STARLINK-5043,PAYLOAD,2023-11-21 10:11:53,15.08841084,0.0001377,53.2167,131.7607,92.896,267.2189,2.506e-05,1.11e-06,0.0,0 STARLINK-5043,1 53894U 22119J   23325.42491961  .00000111  00000-0  25060-4 0  9995,2 53894  53.2167 131.7607 0001377  92.8960 267.2189 15.08841084 64983,6917.877,95.437,540.695,538.789,0.0
53894.0,STARLINK-5043,PAYLOAD,2023-11-21 19:44:11,15.08845551,0.0001368,53.2168,129.9757,91.7271,268.3878,4.806e-05,4.77e-06,0.0,0 STARLINK-5043,1 53894U 22119J   23325.82235620  .00000477  00000-0  48060-4 0  9997,2 53894  53.2168 129.9757 0001368  91.7271 268.3878 15.08845551 65040,6917.863,95.437,540.675,538.782,0.0
53894.0,STARLINK-5043,PAYLOAD,2023-11-22 11:38:03,15.08839077,0.0001372,53.2168,127.0018,91.4152,268.6997,5.539e-05,5.94e-06,0.0,0 STARLINK-5043,1 53894U 22119J   23326.48475995  .00000594  00000-0  55390-4 0  9995,2 53894  53.2168 127.0018 0001372  91.4152 268.6997 15.08839077 64724,6917.883,95.438,540.697,538.799,0.0
53894.0,STARLINK-5043,PAYLOAD,2023-11-22 14:48:49,15.08840985,0.000137,53.2169,126.4072,91.6078,268.5071,6.9577e-05,8.2e-06,0.0,0 STARLINK-5043,1 53894U 22119J   23326.61723845  .00000820  00000-0  69577-4 0  9994,2 53894  53.2169 126.4072 0001370  91.6078 268.5071 15.08840985 65166,6917.877,95.437,540.69,538.795,0.0
53894.0,STARLINK-5043,PAYLOAD,2023-11-22 16:24:12,15.08841424,0.0001371,53.217,126.1099,91.5802,268.5347,7.2147e-05,8.61e-06,0.0,0 STARLINK-5043,1 53894U 22119J   23326.68347808  .00000861  00000-0  72147-4 0  9994,2 53894  53.2170 126.1099 0001371  91.5802 268.5347 15.08841424 65175,6917.876,95.437,540.689,538.793,0.0
53894.0,STARLINK-5043,PAYLOAD,2023-11-23 14:39:37,15.08834339,0.0001435,53.2176,121.9455,100.7624,259.353,-1.5637e-05,-5.37e-06,0.0,0 STARLINK-5043,1 53894U 22119J   23327.61084765 -.00000537  00000-0 -15637-4 0  9991,2 53894  53.2176 121.9455 0001435 100.7624 259.3530 15.08834339 65311,6917.898,95.438,540.755,538.77,0.0
53894.0,STARLINK-5043,PAYLOAD,2023-11-23 19:25:46,15.08836669,0.0001436,53.2177,121.0535,99.1821,260.9334,-2.7804e-07,-2.92e-06,0.0,0 STARLINK-5043,1 53894U 22119J   23327.80956599 -.00000292  00000-0 -27804-6 0  9994,2 53894  53.2177 121.0535 0001436  99.1821 260.9334 15.08836669 64927,6917.891,95.438,540.749,538.762,0.0
53894.0,STARLINK-5043,PAYLOAD,2023-11-24 14:30:24,15.08837099,0.0001455,53.2181,117.4878,99.2948,260.8209,5.8054e-05,6.36e-06,0.0,0 STARLINK-5043,1 53894U 22119J   23328.60444647  .00000636  00000-0  58054-4 0  9998,2 53894  53.2181 117.4878 0001455  99.2948 260.8209 15.08837099 65461,6917.889,95.438,540.761,538.748,0.0
53894.0,STARLINK-5043,PAYLOAD,2023-11-24 17:41:10,15.08840012,0.0001426,53.2178,116.8928,96.1438,263.9717,7.9041e-05,9.7e-06,0.0,0 STARLINK-5043,1 53894U 22119J   23328.73692437  .00000970  00000-0  79041-4 0  9994,2 53894  53.2178 116.8928 0001426  96.1438 263.9717 15.08840012 65483,6917.88,95.438,540.732,538.759,0.0
53894.0,STARLINK-5043,PAYLOAD,2023-11-25 14:21:10,15.08847614,0.0001435,53.2181,113.0271,89.0188,271.0969,0.00014558,2.03e-05,0.0,0 STARLINK-5043,1 53894U 22119J   23329.59803842  .00002030  00000-0  14558-3 0  9993,2 53894  53.2181 113.0271 0001435  89.0188 271.0969 15.08847614 65619,6917.857,95.437,540.715,538.729,0.0
53894.0,STARLINK-5043,PAYLOAD,2023-11-25 17:31:55,15.08865826,0.0001453,53.2182,112.4328,84.6692,275.4466,0.00030113,4.511e-05,0.0,0 STARLINK-5043,1 53894U 22119J   23329.73050345  .00004511  00000-0  30113-3 0  9992,2 53894  53.2182 112.4328 0001453  84.6692 275.4466 15.08865826 65634,6917.801,95.436,540.672,538.661,0.0
53894.0,STARLINK-5043,PAYLOAD,2023-11-26 09:25:48,15.0884902,0.000152,53.2184,109.4578,81.5356,278.5808,5.6704e-05,6.15e-06,0.0,0 STARLINK-5043,1 53894U 22119J   23330.39291728  .00000615  00000-0  56704-4 0  9994,2 53894  53.2184 109.4578 0001520  81.5356 278.5808 15.08849020 65314,6917.853,95.437,540.769,538.666,0.0
53894.0,STARLINK-5043,PAYLOAD,2023-11-26 14:12:00,15.08807086,0.0001375,53.2183,108.5656,73.3354,286.7789,-0.00029926,-5.043e-05,0.0,0 STARLINK-5043,1 53894U 22119J   23330.59167328 -.00005043  00000-0 -29926-3 0  9991,2 53894  53.2183 108.5656 0001375  73.3354 286.7789 15.08807086 65769,6917.981,95.44,540.797,538.895,0.0
53894.0,STARLINK-5043,PAYLOAD,2023-11-27 12:27:25,15.08816204,0.0001688,53.2186,104.4006,75.2379,284.88,-0.00040236,-6.682e-05,0.0,0 STARLINK-5043,1 53894U 22119J   23331.51904910 -.00006682  00000-0 -40236-3 0  9997,2 53894  53.2186 104.4006 0001688  75.2379 284.8800 15.08816204 65485,6917.953,95.439,540.986,538.65,0.0
53894.0,STARLINK-5043,PAYLOAD,2023-11-27 14:02:46,15.08850347,0.0002084,53.2198,104.1067,82.292,277.8309,-4.7408e-05,-1.043e-05,0.0,0 STARLINK-5043,1 53894U 22119J   23331.58526272 -.00001043  00000-0 -47408-4 0  9990,2 53894  53.2198 104.1067 0002084  82.2920 277.8309 15.08850347 65913,6917.849,95.437,541.155,538.272,0.0
53894.0,STARLINK-5043,PAYLOAD,2023-11-27 18:48:55,15.08856351,0.0001672,53.2186,103.2118,75.5323,284.5855,-2.3648e-05,-6.65e-06,0.0,0 STARLINK-5043,1 53894U 22119J   23331.78397724 -.00000665  00000-0 -23648-4 0  9999,2 53894  53.2186 103.2118 0001672  75.5323 284.5855 15.08856351 65520,6917.83,95.437,540.852,538.539,0.0
